ONEWEB-0450             
1 50504U 21132AM  26063.78265124  .00000006  00000+0 -16617-4 0  9996
2 50504  87.9241 356.1989 0001905  87.6021 272.5329 13.18685133207847
ONEWEB-0410             
1 51622U 22012A   26063.42537968  .00000086  00000+0  18849-3 0  9990
2 51622  87.9149  26.6510 0002022  40.2206 319.9075 13.17649364199902
ONEWEB-0411             
1 51623U 22012B   26063.47957773 -.00000317  00000+0 -94459-3 0  9996
2 51623  87.8772  57.1124 0002399  92.4431 267.6971 13.10376486195578
ONEWEB-0415             
1 51624U 22012C   26063.47626036 -.00000457  00000+0 -13441-2 0  9998
2 51624  87.8767  57.1163 0002143  89.5365 270.6008 13.10375030195575
ONEWEB-0416             
1 51625U 22012D   26063.48788982  .00000053  00000+0  11478-3 0  9998
2 51625  87.8770  57.1344 0002278  81.7510 278.3876 13.10376376195613
ONEWEB-0422             
1 51626U 22012E   26063.35956283  .00000006  00000+0 -18934-4 0  9990
2 51626  87.9154  26.6666 0001712 103.2143 256.9180 13.17648797200009
ONEWEB-0423             
1 51627U 22012F   26063.65654292  .00000029  00000+0  40509-4 0  9996
2 51627  87.9150  26.6171 0001753  82.4299 277.7031 13.17650137199938
ONEWEB-0425             
1 51628U 22012G   26063.72692852  .00000555  00000+0  15539-2 0  9996
2 51628  87.8773  57.0641 0001680  75.1379 284.9934 13.10375608195642
ONEWEB-0428             
1 51629U 22012H   26063.70698983 -.00000460  00000+0 -13545-2 0  9998
2 51629  87.8768  57.0812 0001813  88.2121 271.9214 13.10375407195605
ONEWEB-0431             
1 51630U 22012J   26063.44792898  .00000023  00000+0  30522-4 0  9990
2 51630  87.8769  57.1180 0002413  97.4264 262.7137 13.10369592195626
ONEWEB-0434             
1 51631U 22012K   26063.73038851  .00000576  00000+0  16148-2 0  9994
2 51631  87.8765  57.0904 0001515  67.3660 292.7628 13.10374576195642
ONEWEB-0435             
1 51632U 22012L   26063.73855443  .00000652  00000+0  18316-2 0  9993
2 51632  87.8764  57.0793 0001765 100.5137 259.6189 13.10372559195636
ONEWEB-0436             
1 51633U 22012M   26063.42029909  .00000142  00000+0  33208-3 0  9992
2 51633  87.9149  26.6426 0001866  88.2520 271.8825 13.17649921199881
ONEWEB-0438             
1 51634U 22012N   26063.49286991 -.00000904  00000+0 -26244-2 0  9995
2 51634  87.8767  57.1292 0001458  79.4344 280.6947 13.10382977195630
ONEWEB-0439             
1 51635U 22012P   26063.49620175  .00000453  00000+0  12601-2 0  9991
2 51635  87.8765  57.1175 0001770  86.5171 273.6158 13.10375728195613
ONEWEB-0442             
1 51636U 22012Q   26063.41272121  .00000059  00000+0  11882-3 0  9991
2 51636  87.9138  26.6838 0001904  63.0201 297.1125 13.17647914199872
ONEWEB-0443             
1 51637U 22012R   26063.43211673 -.00000008  00000+0 -52685-4 0  9992
2 51637  87.9143  26.6822 0001506  79.0551 281.0750 13.17650710199925
