[{"OBJECT_NAME":"ONEWEB-0450","OBJECT_ID":"2021-132AM","EPOCH":"2026-03-04T18:47:01.067136","MEAN_MOTION":13.18685133,"ECCENTRICITY":0.0001905,"INCLINATION":87.9241,"RA_OF_ASC_NODE":356.1989,"ARG_OF_PERICENTER":87.6021,"MEAN_ANOMALY":272.5329,"EPHEMERIS_TYPE":0,"CLASSIFICATION_TYPE":"U","NORAD_CAT_ID":50504,"ELEMENT_SET_NO":999,"REV_AT_EPOCH":20784,"BSTAR":-1.6617e-5,"MEAN_MOTION_DOT":6.0e-8,"MEAN_MOTION_DDOT":0},{"OBJECT_NAME":"ONEWEB-0410","OBJECT_ID":"2022-012A","EPOCH":"2026-03-04T10:12:32.804352","MEAN_MOTION":13.17649364,"ECCENTRICITY":0.00020229,"INCLINATION":87.9149,"RA_OF_ASC_NODE":26.651,"ARG_OF_PERICENTER":40.2206,"MEAN_ANOMALY":319.9075,"EPHEMERIS_TYPE":0,"CLASSIFICATION_TYPE":"U","NORAD_CAT_ID":51622,"ELEMENT_SET_NO":999,"REV_AT_EPOCH":19990,"BSTAR":0.00018848533,"MEAN_MOTION_DOT":8.6e-7,"MEAN_MOTION_DDOT":0},{"OBJECT_NAME":"ONEWEB-0411","OBJECT_ID":"2022-012B","EPOCH":"2026-03-04T11:30:35.515872","MEAN_MOTION":13.10376486,"ECCENTRICITY":0.00023993,"INCLINATION":87.8772,"RA_OF_ASC_NODE":57.1124,"ARG_OF_PERICENTER":92.4431,"MEAN_ANOMALY":267.6971,"EPHEMERIS_TYPE":0,"CLASSIFICATION_TYPE":"U","NORAD_CAT_ID":51623,"ELEMENT_SET_NO":999,"REV_AT_EPOCH":19557,"BSTAR":-0.00094459056,"MEAN_MOTION_DOT":-3.17e-6,"MEAN_MOTION_DDOT":0},{"OBJECT_NAME":"ONEWEB-0415","OBJECT_ID":"2022-012C","EPOCH":"2026-03-04T11:25:48.895104","MEAN_MOTION":13.1037503,"ECCENTRICITY":0.00021435,"INCLINATION":87.8767,"RA_OF_ASC_NODE":57.1163,"ARG_OF_PERICENTER":89.5365,"MEAN_ANOMALY":270.6008,"EPHEMERIS_TYPE":0,"CLASSIFICATION_TYPE":"U","NORAD_CAT_ID":51624,"ELEMENT_SET_NO":999,"REV_AT_EPOCH":19557,"BSTAR":-0.001344062,"MEAN_MOTION_DOT":-4.57e-6,"MEAN_MOTION_DDOT":0},{"OBJECT_NAME":"ONEWEB-0416","OBJECT_ID":"2022-012D","EPOCH":"2026-03-04T11:42:33.680448","MEAN_MOTION":13.10376376,"ECCENTRICITY":0.00022782,"INCLINATION":87.877,"RA_OF_ASC_NODE":57.1344,"ARG_OF_PERICENTER":81.751,"MEAN_ANOMALY":278.3876,"EPHEMERIS_TYPE":0,"CLASSIFICATION_TYPE":"U","NORAD_CAT_ID":51625,"ELEMENT_SET_NO":999,"REV_AT_EPOCH":19561,"BSTAR":0.00011478274,"MEAN_MOTION_DOT":5.3e-7,"MEAN_MOTION_DDOT":0},{"OBJECT_NAME":"ONEWEB-0422","OBJECT_ID":"2022-012E","EPOCH":"2026-03-04T08:37:46.228512","MEAN_MOTION":13.17648797,"ECCENTRICITY":0.00017121,"INCLINATION":87.9154,"RA_OF_ASC_NODE":26.6666,"ARG_OF_PERICENTER":103.2143,"MEAN_ANOMALY":256.918,"EPHEMERIS_TYPE":0,"CLASSIFICATION_TYPE":"U","NORAD_CAT_ID":51626,"ELEMENT_SET_NO":999,"REV_AT_EPOCH":20000,"BSTAR":-1.8934406e-5,"MEAN_MOTION_DOT":6.0e-8,"MEAN_MOTION_DDOT":0},{"OBJECT_NAME":"ONEWEB-0423","OBJECT_ID":"2022-012F","EPOCH":"2026-03-04T15:45:25.308288","MEAN_MOTION":13.17650137,"ECCENTRICITY":0.0001753,"INCLINATION":87.915,"RA_OF_ASC_NODE":26.6171,"ARG_OF_PERICENTER":82.4299,"MEAN_ANOMALY":277.7031,"EPHEMERIS_TYPE":0,"CLASSIFICATION_TYPE":"U","NORAD_CAT_ID":51627,"ELEMENT_SET_NO":999,"REV_AT_EPOCH":19993,"BSTAR":4.0509e-5,"MEAN_MOTION_DOT":2.9e-7,"MEAN_MOTION_DDOT":0},{"OBJECT_NAME":"ONEWEB-0425","OBJECT_ID":"2022-012G","EPOCH":"2026-03-04T17:26:46.624128","MEAN_MOTION":13.10375608,"ECCENTRICITY":0.000168,"INCLINATION":87.8773,"RA_OF_ASC_NODE":57.0641,"ARG_OF_PERICENTER":75.1379,"MEAN_ANOMALY":284.9934,"EPHEMERIS_TYPE":0,"CLASSIFICATION_TYPE":"U","NORAD_CAT_ID":51628,"ELEMENT_SET_NO":999,"REV_AT_EPOCH":19564,"BSTAR":0.0015539,"MEAN_MOTION_DOT":5.55e-6,"MEAN_MOTION_DDOT":0},{"OBJECT_NAME":"ONEWEB-0428","OBJECT_ID":"2022-012H","EPOCH":"2026-03-04T16:58:03.921312","MEAN_MOTION":13.10375407,"ECCENTRICITY":0.0001813,"INCLINATION":87.8768,"RA_OF_ASC_NODE":57.0812,"ARG_OF_PERICENTER":88.2121,"MEAN_ANOMALY":271.9214,"EPHEMERIS_TYPE":0,"CLASSIFICATION_TYPE":"U","NORAD_CAT_ID":51629,"ELEMENT_SET_NO":999,"REV_AT_EPOCH":19560,"BSTAR":-0.0013545,"MEAN_MOTION_DOT":-4.6e-6,"MEAN_MOTION_DDOT":0},{"OBJECT_NAME":"ONEWEB-0431","OBJECT_ID":"2022-012J","EPOCH":"2026-03-04T10:45:01.063872","MEAN_MOTION":13.10369592,"ECCENTRICITY":0.00024138,"INCLINATION":87.8769,"RA_OF_ASC_NODE":57.118,"ARG_OF_PERICENTER":97.4264,"MEAN_ANOMALY":262.7137,"EPHEMERIS_TYPE":0,"CLASSIFICATION_TYPE":"U","NORAD_CAT_ID":51630,"ELEMENT_SET_NO":999,"REV_AT_EPOCH":19562,"BSTAR":3.0522335e-5,"MEAN_MOTION_DOT":2.3e-7,"MEAN_MOTION_DDOT":0},{"OBJECT_NAME":"ONEWEB-0434","OBJECT_ID":"2022-012K","EPOCH":"2026-03-04T17:31:45.567264","MEAN_MOTION":13.10374576,"ECCENTRICITY":0.0001515,"INCLINATION":87.8765,"RA_OF_ASC_NODE":57.0904,"ARG_OF_PERICENTER":67.366,"MEAN_ANOMALY":292.7628,"EPHEMERIS_TYPE":0,"CLASSIFICATION_TYPE":"U","NORAD_CAT_ID":51631,"ELEMENT_SET_NO":999,"REV_AT_EPOCH":19564,"BSTAR":0.0016148,"MEAN_MOTION_DOT":5.76e-6,"MEAN_MOTION_DDOT":0},{"OBJECT_NAME":"ONEWEB-0435","OBJECT_ID":"2022-012L","EPOCH":"2026-03-04T17:43:31.102752","MEAN_MOTION":13.10372559,"ECCENTRICITY":0.0001765,"INCLINATION":87.8764,"RA_OF_ASC_NODE":57.0793,"ARG_OF_PERICENTER":100.5137,"MEAN_ANOMALY":259.6189,"EPHEMERIS_TYPE":0,"CLASSIFICATION_TYPE":"U","NORAD_CAT_ID":51632,"ELEMENT_SET_NO":999,"REV_AT_EPOCH":19563,"BSTAR":0.0018316,"MEAN_MOTION_DOT":6.52e-6,"MEAN_MOTION_DDOT":0},{"OBJECT_NAME":"ONEWEB-0436","OBJECT_ID":"2022-012M","EPOCH":"2026-03-04T10:05:13.841376","MEAN_MOTION":13.17649921,"ECCENTRICITY":0.00018668,"INCLINATION":87.9149,"RA_OF_ASC_NODE":26.6426,"ARG_OF_PERICENTER":88.252,"MEAN_ANOMALY":271.8825,"EPHEMERIS_TYPE":0,"CLASSIFICATION_TYPE":"U","NORAD_CAT_ID":51633,"ELEMENT_SET_NO":999,"REV_AT_EPOCH":19988,"BSTAR":0.00033208094,"MEAN_MOTION_DOT":1.42e-6,"MEAN_MOTION_DDOT":0},{"OBJECT_NAME":"ONEWEB-0438","OBJECT_ID":"2022-012N","EPOCH":"2026-03-04T11:49:43.960224","MEAN_MOTION":13.10382977,"ECCENTRICITY":0.00014587,"INCLINATION":87.8767,"RA_OF_ASC_NODE":57.1292,"ARG_OF_PERICENTER":79.4344,"MEAN_ANOMALY":280.6947,"EPHEMERIS_TYPE":0,"CLASSIFICATION_TYPE":"U","NORAD_CAT_ID":51634,"ELEMENT_SET_NO":999,"REV_AT_EPOCH":19563,"BSTAR":-0.0026244307,"MEAN_MOTION_DOT":-9.04e-6,"MEAN_MOTION_DDOT":0},{"OBJECT_NAME":"ONEWEB-0439","OBJECT_ID":"2022-012P","EPOCH":"2026-03-04T11:54:31.831200","MEAN_MOTION":13.10375728,"ECCENTRICITY":0.00017703,"INCLINATION":87.8765,"RA_OF_ASC_NODE":57.1175,"ARG_OF_PERICENTER":86.5171,"MEAN_ANOMALY":273.6158,"EPHEMERIS_TYPE":0,"CLASSIFICATION_TYPE":"U","NORAD_CAT_ID":51635,"ELEMENT_SET_NO":999,"REV_AT_EPOCH":19561,"BSTAR":0.0012601127,"MEAN_MOTION_DOT":4.53e-6,"MEAN_MOTION_DDOT":0},{"OBJECT_NAME":"ONEWEB-0442","OBJECT_ID":"2022-012Q","EPOCH":"2026-03-04T09:54:19.112544","MEAN_MOTION":13.17647914,"ECCENTRICITY":0.00019049,"INCLINATION":87.9138,"RA_OF_ASC_NODE":26.6838,"ARG_OF_PERICENTER":63.0201,"MEAN_ANOMALY":297.1125,"EPHEMERIS_TYPE":0,"CLASSIFICATION_TYPE":"U","NORAD_CAT_ID":51636,"ELEMENT_SET_NO":999,"REV_AT_EPOCH":19987,"BSTAR":0.00011881605,"MEAN_MOTION_DOT":5.9e-7,"MEAN_MOTION_DDOT":0},{"OBJECT_NAME":"ONEWEB-0443","OBJECT_ID":"2022-012R","EPOCH":"2026-03-04T10:22:14.885472","MEAN_MOTION":13.1765071,"ECCENTRICITY":0.00015069,"INCLINATION":87.9143,"RA_OF_ASC_NODE":26.6822,"ARG_OF_PERICENTER":79.0551,"MEAN_ANOMALY":281.075,"EPHEMERIS_TYPE":0,"CLASSIFICATION_TYPE":"U","NORAD_CAT_ID":51637,"ELEMENT_SET_NO":999,"REV_AT_EPOCH":19992,"BSTAR":-5.268506e-5,"MEAN_MOTION_DOT":-8.0e-8,"MEAN_MOTION_DDOT":0}]
